FENGYUN 1C DEB          
1 39537U 99025EWE 17345.59704609  .00000556  00000-0  55424-3 0  9991
2 39537  99.1410 213.8232 0194268 173.8137 186.5479 13.74074657190266
